[{"OBJECT_NAME":"GEESAT-6 05","OBJECT_ID":"2025-214F","EPOCH":"2026-03-09T22:35:26.117664","MEAN_MOTION":14.83005779,"ECCENTRICITY":0.0012614,"INCLINATION":49.9792,"RA_OF_ASC_NODE":48.1153,"ARG_OF_PERICENTER":192.2595,"MEAN_ANOMALY":167.8037,"EPHEMERIS_TYPE":0,"CLASSIFICATION_TYPE":"U","NORAD_CAT_ID":65717,"ELEMENT_SET_NO":999,"REV_AT_EPOCH":2477,"BSTAR":0.00036224871,"MEAN_MOTION_DOT":2.753e-5,"MEAN_MOTION_DDOT":0},{"OBJECT_NAME":"NOAA 17 DEB","OBJECT_ID":"2002-032AQ","EPOCH":"2026-03-09T15:51:58.323744","MEAN_MOTION":14.77923076,"ECCENTRICITY":0.00357104,"INCLINATION":98.773,"RA_OF_ASC_NODE":129.0093,"ARG_OF_PERICENTER":247.3123,"MEAN_ANOMALY":112.4308,"EPHEMERIS_TYPE":0,"CLASSIFICATION_TYPE":"U","NORAD_CAT_ID":48707,"ELEMENT_SET_NO":999,"REV_AT_EPOCH":26417,"BSTAR":0.0019908705,"MEAN_MOTION_DOT":0.00014456,"MEAN_MOTION_DDOT":0}]
